{"type": "FeatureCollection", "features": [{"type": "Feature", "properties": {"norad_id": 32275, "name": "COSMOS 2433 (720)", "group": "glo-ops", "lat": 27.549609463420683, "lon": -24.516589384944115, "alt_km": 19135.897383591662, "timestamp": "2025-12-22T23:36:20.973933+00:00", "meta": {"OBJECT_NAME": "COSMOS 2433 (720)", "OBJECT_ID": "2007-052A", "EPOCH": "2025-12-22T00:07:36.568704", "MEAN_MOTION": 2.13104226, "ECCENTRICITY": 0.00051704, "INCLINATION": 65.6781, "RA_OF_ASC_NODE": 321.8942, "ARG_OF_PERICENTER": 255.846, "MEAN_ANOMALY": 104.0915, "EPHEMERIS_TYPE": 0, "CLASSIFICATION_TYPE": "U", "NORAD_CAT_ID": 32275, "ELEMENT_SET_NO": 999, "REV_AT_EPOCH": 14128, "BSTAR": 0, "MEAN_MOTION_DOT": -4.2e-07, "MEAN_MOTION_DDOT": 0}, "tle": {"line1": "1 32275U 07052A   25356.00528436 -.00000042  00000+0  00000+0 0  9997", "line2": "2 32275  65.6781 321.8942 0005170 255.8460 104.0915  2.13104226141283"}}, "geometry": {"type": "Point", "coordinates": [-24.516589384944115, 27.549609463420683]}}, {"type": "Feature", "properties": {"norad_id": 32276, "name": "COSMOS 2432 (719)", "group": "glo-ops", "lat": -22.70790157023202, "lon": -48.9259405926112, "alt_km": 19105.983687469503, "timestamp": "2025-12-22T23:36:20.973958+00:00", "meta": {"OBJECT_NAME": "COSMOS 2432 (719)", "OBJECT_ID": "2007-052B", "EPOCH": "2025-12-22T03:59:43.764000", "MEAN_MOTION": 2.13103428, "ECCENTRICITY": 0.00113428, "INCLINATION": 65.6941, "RA_OF_ASC_NODE": 322.0132, "ARG_OF_PERICENTER": 314.3945, "MEAN_ANOMALY": 113.6439, "EPHEMERIS_TYPE": 0, "CLASSIFICATION_TYPE": "U", "NORAD_CAT_ID": 32276, "ELEMENT_SET_NO": 999, "REV_AT_EPOCH": 14131, "BSTAR": 0, "MEAN_MOTION_DOT": -4.2e-07, "MEAN_MOTION_DDOT": 0}, "tle": {"line1": "1 32276U 07052B   25356.16647875 -.00000042  00000+0  00000+0 0  9994", "line2": "2 32276  65.6941 322.0132 0011342 314.3945 113.6439  2.13103428141317"}}, "geometry": {"type": "Point", "coordinates": [-48.9259405926112, -22.70790157023202]}}, {"type": "Feature", "properties": {"norad_id": 32393, "name": "COSMOS 2434 (721)", "group": "glo-ops", "lat": -62.19051905429328, "lon": 131.95093364946268, "alt_km": 19147.197150443106, "timestamp": "2025-12-22T23:36:20.973974+00:00", "meta": {"OBJECT_NAME": "COSMOS 2434 (721)", "OBJECT_ID": "2007-065A", "EPOCH": "2025-12-21T09:39:23.764896", "MEAN_MOTION": 2.13101489, "ECCENTRICITY": 0.00048181, "INCLINATION": 64.3157, "RA_OF_ASC_NODE": 197.9109, "ARG_OF_PERICENTER": 72.3225, "MEAN_ANOMALY": 75.6648, "EPHEMERIS_TYPE": 0, "CLASSIFICATION_TYPE": "U", "NORAD_CAT_ID": 32393, "ELEMENT_SET_NO": 999, "REV_AT_EPOCH": 13998, "BSTAR": 0, "MEAN_MOTION_DOT": 9.7e-07, "MEAN_MOTION_DDOT": 0}, "tle": {"line1": "1 32393U 07065A   25355.40235839  .00000097  00000+0  00000+0 0  9996", "line2": "2 32393  64.3157 197.9109 0004818  72.3225  75.6648  2.13101489139981"}}, "geometry": {"type": "Point", "coordinates": [131.95093364946268, -62.19051905429328]}}, {"type": "Feature", "properties": {"norad_id": 32395, "name": "COSMOS 2436 (723)", "group": "glo-ops", "lat": 46.92873501812798, "lon": -131.0781040804466, "alt_km": 19091.865155252188, "timestamp": "2025-12-22T23:36:20.973988+00:00", "meta": {"OBJECT_NAME": "COSMOS 2436 (723)", "OBJECT_ID": "2007-065C", "EPOCH": "2025-12-22T03:44:50.577216", "MEAN_MOTION": 2.13100244, "ECCENTRICITY": 0.00178113, "INCLINATION": 64.3245, "RA_OF_ASC_NODE": 197.9558, "ARG_OF_PERICENTER": 10.2272, "MEAN_ANOMALY": 129.0724, "EPHEMERIS_TYPE": 0, "CLASSIFICATION_TYPE": "U", "NORAD_CAT_ID": 32395, "ELEMENT_SET_NO": 999, "REV_AT_EPOCH": 13995, "BSTAR": 0, "MEAN_MOTION_DOT": 9.5e-07, "MEAN_MOTION_DDOT": 0}, "tle": {"line1": "1 32395U 07065C   25356.15614094  .00000095  00000+0  00000+0 0  9993", "line2": "2 32395  64.3245 197.9558 0017811  10.2272 129.0724  2.13100244139953"}}, "geometry": {"type": "Point", "coordinates": [-131.0781040804466, 46.92873501812798]}}, {"type": "Feature", "properties": {"norad_id": 36111, "name": "COSMOS 2456 (730)", "group": "glo-ops", "lat": 62.444432339118805, "lon": 140.72226957803423, "alt_km": 19130.322789681362, "timestamp": "2025-12-22T23:36:20.974001+00:00", "meta": {"OBJECT_NAME": "COSMOS 2456 (730)", "OBJECT_ID": "2009-070A", "EPOCH": "2025-12-22T12:57:22.117248", "MEAN_MOTION": 2.13103796, "ECCENTRICITY": 0.00035899, "INCLINATION": 64.905, "RA_OF_ASC_NODE": 77.0029, "ARG_OF_PERICENTER": 294.9514, "MEAN_ANOMALY": 162.8071, "EPHEMERIS_TYPE": 0, "CLASSIFICATION_TYPE": "U", "NORAD_CAT_ID": 36111, "ELEMENT_SET_NO": 999, "REV_AT_EPOCH": 12466, "BSTAR": 0, "MEAN_MOTION_DOT": -4e-08, "MEAN_MOTION_DDOT": 0}, "tle": {"line1": "1 36111U 09070A   25356.53983932 -.00000004  00000+0  00000+0 0  9994", "line2": "2 36111  64.9050  77.0029 0003589 294.9514 162.8071  2.13103796124668"}}, "geometry": {"type": "Point", "coordinates": [140.72226957803423, 62.444432339118805]}}, {"type": "Feature", "properties": {"norad_id": 36112, "name": "COSMOS 2457 (733)", "group": "glo-ops", "lat": -24.51927008732841, "lon": -90.81988190263024, "alt_km": 19125.230834737293, "timestamp": "2025-12-22T23:36:20.974041+00:00", "meta": {"OBJECT_NAME": "COSMOS 2457 (733)", "OBJECT_ID": "2009-070B", "EPOCH": "2025-12-22T07:58:45.939360", "MEAN_MOTION": 2.13101135, "ECCENTRICITY": 0.00045264, "INCLINATION": 64.8905, "RA_OF_ASC_NODE": 76.8574, "ARG_OF_PERICENTER": 162.7166, "MEAN_ANOMALY": 265.0122, "EPHEMERIS_TYPE": 0, "CLASSIFICATION_TYPE": "U", "NORAD_CAT_ID": 36112, "ELEMENT_SET_NO": 999, "REV_AT_EPOCH": 12466, "BSTAR": 0, "MEAN_MOTION_DOT": -5e-08, "MEAN_MOTION_DDOT": 0}, "tle": {"line1": "1 36112U 09070B   25356.33247615 -.00000005  00000+0  00000+0 0  9995", "line2": "2 36112  64.8905  76.8574 0004526 162.7166 265.0122  2.13101135124664"}}, "geometry": {"type": "Point", "coordinates": [-90.81988190263024, -24.51927008732841]}}, {"type": "Feature", "properties": {"norad_id": 36402, "name": "COSMOS 2460 (732)", "group": "glo-ops", "lat": -24.318155295505427, "lon": 152.2818458814246, "alt_km": 19131.59338226845, "timestamp": "2025-12-22T23:36:20.974073+00:00", "meta": {"OBJECT_NAME": "COSMOS 2460 (732)", "OBJECT_ID": "2010-007C", "EPOCH": "2025-12-22T12:30:28.820160", "MEAN_MOTION": 2.1310637, "ECCENTRICITY": 0.00025026, "INCLINATION": 65.5243, "RA_OF_ASC_NODE": 320.4432, "ARG_OF_PERICENTER": 283.7046, "MEAN_ANOMALY": 288.4145, "EPHEMERIS_TYPE": 0, "CLASSIFICATION_TYPE": "U", "NORAD_CAT_ID": 36402, "ELEMENT_SET_NO": 999, "REV_AT_EPOCH": 12296, "BSTAR": 0, "MEAN_MOTION_DOT": -3.9e-07, "MEAN_MOTION_DDOT": 0}, "tle": {"line1": "1 36402U 10007C   25356.52116690 -.00000039  00000+0  00000+0 0  9995", "line2": "2 36402  65.5243 320.4432 0002502 283.7046 288.4145  2.13106370122964"}}, "geometry": {"type": "Point", "coordinates": [152.2818458814246, -24.318155295505427]}}, {"type": "Feature", "properties": {"norad_id": 37867, "name": "COSMOS 2476 (744)", "group": "glo-ops", "lat": -12.019750672737345, "lon": 73.1902103682643, "alt_km": 19155.12006913893, "timestamp": "2025-12-22T23:36:20.974088+00:00", "meta": {"OBJECT_NAME": "COSMOS 2476 (744)", "OBJECT_ID": "2011-064A", "EPOCH": "2025-12-19T06:05:26.552256", "MEAN_MOTION": 2.13103916, "ECCENTRICITY": 0.0024321, "INCLINATION": 65.1662, "RA_OF_ASC_NODE": 78.9509, "ARG_OF_PERICENTER": 234.6548, "MEAN_ANOMALY": 130.4776, "EPHEMERIS_TYPE": 0, "CLASSIFICATION_TYPE": "U", "NORAD_CAT_ID": 37867, "ELEMENT_SET_NO": 999, "REV_AT_EPOCH": 10993, "BSTAR": 0, "MEAN_MOTION_DOT": -3e-07, "MEAN_MOTION_DDOT": 0}, "tle": {"line1": "1 37867U 11064A   25353.25377954 -.00000030  00000+0  00000+0 0  9995", "line2": "2 37867  65.1662  78.9509 0024321 234.6548 130.4776  2.13103916109937"}}, "geometry": {"type": "Point", "coordinates": [73.1902103682643, -12.019750672737345]}}, {"type": "Feature", "properties": {"norad_id": 37868, "name": "COSMOS 2477 (745)", "group": "glo-ops", "lat": 11.599987091170917, "lon": -106.52711149533343, "alt_km": 19108.236539403028, "timestamp": "2025-12-22T23:36:20.974105+00:00", "meta": {"OBJECT_NAME": "COSMOS 2477 (745)", "OBJECT_ID": "2011-064B", "EPOCH": "2025-12-22T10:30:41.821056", "MEAN_MOTION": 2.1310305, "ECCENTRICITY": 0.00215605, "INCLINATION": 65.1736, "RA_OF_ASC_NODE": 78.921, "ARG_OF_PERICENTER": 235.3633, "MEAN_ANOMALY": 233.4933, "EPHEMERIS_TYPE": 0, "CLASSIFICATION_TYPE": "U", "NORAD_CAT_ID": 37868, "ELEMENT_SET_NO": 999, "REV_AT_EPOCH": 10999, "BSTAR": 0, "MEAN_MOTION_DOT": -3e-08, "MEAN_MOTION_DDOT": 0}, "tle": {"line1": "1 37868U 11064B   25356.43798404 -.00000003  00000+0  00000+0 0  9996", "line2": "2 37868  65.1736  78.9210 0021560 235.3633 233.4933  2.13103050109998"}}, "geometry": {"type": "Point", "coordinates": [-106.52711149533343, 11.599987091170917]}}, {"type": "Feature", "properties": {"norad_id": 37869, "name": "COSMOS 2475 (743)", "group": "glo-ops", "lat": 49.531974778118865, "lon": -133.85225724000924, "alt_km": 19164.17231149881, "timestamp": "2025-12-22T23:36:20.974119+00:00", "meta": {"OBJECT_NAME": "COSMOS 2475 (743)", "OBJECT_ID": "2011-064C", "EPOCH": "2025-12-22T12:35:30.005376", "MEAN_MOTION": 2.13101682, "ECCENTRICITY": 0.00266922, "INCLINATION": 65.1807, "RA_OF_ASC_NODE": 78.9382, "ARG_OF_PERICENTER": 249.0834, "MEAN_ANOMALY": 242.1615, "EPHEMERIS_TYPE": 0, "CLASSIFICATION_TYPE": "U", "NORAD_CAT_ID": 37869, "ELEMENT_SET_NO": 999, "REV_AT_EPOCH": 11000, "BSTAR": 0, "MEAN_MOTION_DOT": -2e-08, "MEAN_MOTION_DDOT": 0}, "tle": {"line1": "1 37869U 11064C   25356.52465284 -.00000002  00000+0  00000+0 0  9993", "line2": "2 37869  65.1807  78.9382 0026692 249.0834 242.1615  2.13101682110001"}}, "geometry": {"type": "Point", "coordinates": [-133.85225724000924, 49.531974778118865]}}]}